IRIDIUM 144             
1 43249U 18030A   24175.59152193  .00000060  00000+0  14240-4 0  9998
2 43249  86.3977 232.7857 0002608  95.4014 264.7480 14.34217958326429
IRIDIUM 149             
1 43250U 18030B   24175.66763297  .00000036  00000+0  56922-5 0  9998
2 43250  86.3975 232.7291 0002469  91.6115 268.5364 14.34217825326455
IRIDIUM 157             
1 43251U 18030C   24175.54712257  .00000081  00000+0  21785-4 0  9994
2 43251  86.3978 232.8164 0002138  86.8759 273.2681 14.34218140326414
IRIDIUM 140             
1 43252U 18030D   24175.56615129  .00000071  00000+0  18118-4 0  9992
2 43252  86.3977 232.8230 0002501 101.8310 258.3166 14.34218099326474
IRIDIUM 145             
1 43253U 18030E   24175.55346644  .00000178  00000+0  56545-4 0  9999
2 43253  86.3979 232.8022 0002829  97.6954 262.4563 14.34217368326403
IRIDIUM 146             
1 43254U 18030F   24175.60420694  .00000068  00000+0  17194-4 0  9999
2 43254  86.3977 232.7956 0002525  93.0837 267.0647 14.34218033326426
IRIDIUM 148             
1 43255U 18030G   24175.71203077  .00000037  00000+0  61817-5 0  9994
2 43255  86.3977 232.7824 0002347  88.7955 271.3510 14.34217861326486
IRIDIUM 142             
1 43256U 18030H   24175.68031812  .00000161  00000+0  50493-4 0  9992
2 43256  86.3974 232.7111 0002660  92.8235 267.3265 14.34218510326437
